{
  "type": "FeatureCollection",
  "features": [
    {
      "type": "Feature",
      "properties": {
        "norad_id": 40128,
        "name": "GSAT0201 (GALILEO 5)",
        "group": "gnss",
        "lat": -1.5571053727404875,
        "lon": -80.80369622167782,
        "alt_km": 26194.60301347865,
        "timestamp": "2025-12-25T07:41:09.966140+00:00",
        "meta_object_name": "GSAT0201 (GALILEO 5)",
        "meta_object_id": "2014-050A",
        "meta_epoch": "2025-12-24T05:54:59.332320",
        "meta_mean_motion": 1.85519669,
        "meta_eccentricity": 0.16490328,
        "meta_inclination": 49.0634,
        "meta_ra_of_asc_node": 280.5946,
        "meta_arg_of_pericenter": 172.7103,
        "meta_mean_anomaly": 190.0774,
        "meta_ephemeris_type": 0,
        "meta_classification_type": "U",
        "meta_norad_cat_id": 40128,
        "meta_element_set_no": 999,
        "meta_rev_at_epoch": 7507,
        "meta_bstar": 0,
        "meta_mean_motion_dot": -3.7e-07,
        "meta_mean_motion_ddot": 0,
        "tle_line1": "1 40128U 14050A   25358.24652005 -.00000037  00000+0  00000+0 0  9991",
        "tle_line2": "2 40128  49.0634 280.5946 1649032 172.7103 190.0774  1.85519669 75070"
      },
      "geometry": {
        "type": "Point",
        "coordinates": [
          -80.80369622167782,
          -1.5571053727404875
        ]
      }
    },
    {
      "type": "Feature",
      "properties": {
        "norad_id": 40129,
        "name": "GSAT0202 (GALILEO 6)",
        "group": "gnss",
        "lat": -11.01801577775756,
        "lon": 109.340595218244,
        "alt_km": 17202.105172957246,
        "timestamp": "2025-12-25T07:41:09.966152+00:00",
        "meta_object_name": "GSAT0202 (GALILEO 6)",
        "meta_object_id": "2014-050B",
        "meta_epoch": "2025-12-23T23:07:46.341984",
        "meta_mean_motion": 1.85520106,
        "meta_eccentricity": 0.16495716,
        "meta_inclination": 49.08,
        "meta_ra_of_asc_node": 279.6897,
        "meta_arg_of_pericenter": 173.4584,
        "meta_mean_anomaly": 189.053,
        "meta_ephemeris_type": 0,
        "meta_classification_type": "U",
        "meta_norad_cat_id": 40129,
        "meta_element_set_no": 999,
        "meta_rev_at_epoch": 7723,
        "meta_bstar": 0,
        "meta_mean_motion_dot": -3.5e-07,
        "meta_mean_motion_ddot": 0,
        "tle_line1": "1 40129U 14050B   25357.96373081 -.00000035  00000+0  00000+0 0  9992",
        "tle_line2": "2 40129  49.0800 279.6897 1649571 173.4584 189.0530  1.85520106 77235"
      },
      "geometry": {
        "type": "Point",
        "coordinates": [
          109.340595218244,
          -11.01801577775756
        ]
      }
    },
    {
      "type": "Feature",
      "properties": {
        "norad_id": 40269,
        "name": "IRNSS-1C",
        "group": "gnss",
        "lat": -2.0905568400625794,
        "lon": -67.77848832377725,
        "alt_km": 35858.41752282945,
        "timestamp": "2025-12-25T07:41:09.966164+00:00",
        "meta_object_name": "IRNSS-1C",
        "meta_object_id": "2014-061A",
        "meta_epoch": "2025-12-24T19:44:06.553248",
        "meta_mean_motion": 1.00273296,
        "meta_eccentricity": 0.00181007,
        "meta_inclination": 6.0727,
        "meta_ra_of_asc_node": 92.3792,
        "meta_arg_of_pericenter": 0.9094,
        "meta_mean_anomaly": 19.3461,
        "meta_ephemeris_type": 0,
        "meta_classification_type": "U",
        "meta_norad_cat_id": 40269,
        "meta_element_set_no": 999,
        "meta_rev_at_epoch": 4094,
        "meta_bstar": 0,
        "meta_mean_motion_dot": -1.43e-06,
        "meta_mean_motion_ddot": 0,
        "tle_line1": "1 40269U 14061A   25358.82229807 -.00000143  00000+0  00000+0 0  9991",
        "tle_line2": "2 40269   6.0727  92.3792 0018100   0.9094  19.3461  1.00273296 40940"
      },
      "geometry": {
        "type": "Point",
        "coordinates": [
          -67.77848832377725,
          -2.0905568400625794
        ]
      }
    },
    {
      "type": "Feature",
      "properties": {
        "norad_id": 40294,
        "name": "GPS BIIF-8  (PRN 03)",
        "group": "gnss",
        "lat": -53.39634768865155,
        "lon": -23.83948286729078,
        "alt_km": 20315.89290020614,
        "timestamp": "2025-12-25T07:41:09.966175+00:00",
        "meta_object_name": "GPS BIIF-8  (PRN 03)",
        "meta_object_id": "2014-068A",
        "meta_epoch": "2025-12-23T10:16:22.808064",
        "meta_mean_motion": 2.00565491,
        "meta_eccentricity": 0.00608386,
        "meta_inclination": 56.8656,
        "meta_ra_of_asc_node": 37.7327,
        "meta_arg_of_pericenter": 68.9718,
        "meta_mean_anomaly": 291.747,
        "meta_ephemeris_type": 0,
        "meta_classification_type": "U",
        "meta_norad_cat_id": 40294,
        "meta_element_set_no": 999,
        "meta_rev_at_epoch": 8168,
        "meta_bstar": 0,
        "meta_mean_motion_dot": -4.8e-07,
        "meta_mean_motion_ddot": 0,
        "tle_line1": "1 40294U 14068A   25357.42804176 -.00000048  00000+0  00000+0 0  9993",
        "tle_line2": "2 40294  56.8656  37.7327 0060838  68.9718 291.7470  2.00565491 81685"
      },
      "geometry": {
        "type": "Point",
        "coordinates": [
          -23.83948286729078,
          -53.39634768865155
        ]
      }
    },
    {
      "type": "Feature",
      "properties": {
        "norad_id": 40315,
        "name": "COSMOS 2501 (702K)",
        "group": "gnss",
        "lat": 63.50092998722214,
        "lon": -78.64865421340657,
        "alt_km": 19145.860325359383,
        "timestamp": "2025-12-25T07:41:09.966186+00:00",
        "meta_object_name": "COSMOS 2501 (702K)",
        "meta_object_id": "2014-075A",
        "meta_epoch": "2025-12-19T02:31:27.452640",
        "meta_mean_motion": 2.13101513,
        "meta_eccentricity": 0.0020099,
        "meta_inclination": 63.6146,
        "meta_ra_of_asc_node": 196.6046,
        "meta_arg_of_pericenter": 204.1838,
        "meta_mean_anomaly": 155.7988,
        "meta_ephemeris_type": 0,
        "meta_classification_type": "U",
        "meta_norad_cat_id": 40315,
        "meta_element_set_no": 999,
        "meta_rev_at_epoch": 8601,
        "meta_bstar": 0,
        "meta_mean_motion_dot": 1.06e-06,
        "meta_mean_motion_ddot": 0,
        "tle_line1": "1 40315U 14075A   25353.10517885  .00000106  00000+0  00000+0 0  9998",
        "tle_line2": "2 40315  63.6146 196.6046 0020099 204.1838 155.7988  2.13101513 86014"
      },
      "geometry": {
        "type": "Point",
        "coordinates": [
          -78.64865421340657,
          63.50092998722214
        ]
      }
    },
    {
      "type": "Feature",
      "properties": {
        "norad_id": 40534,
        "name": "GPS BIIF-9  (PRN 26)",
        "group": "gnss",
        "lat": -11.023563302265401,
        "lon": 39.76755958458265,
        "alt_km": 20442.387665140068,
        "timestamp": "2025-12-25T07:41:09.966202+00:00",
        "meta_object_name": "GPS BIIF-9  (PRN 26)",
        "meta_object_id": "2015-013A",
        "meta_epoch": "2025-12-24T13:19:21.575712",
        "meta_mean_motion": 2.00561869,
        "meta_eccentricity": 0.01074881,
        "meta_inclination": 53.1961,
        "meta_ra_of_asc_node": 211.4008,
        "meta_arg_of_pericenter": 38.768,
        "meta_mean_anomaly": 322.0719,
        "meta_ephemeris_type": 0,
        "meta_classification_type": "U",
        "meta_norad_cat_id": 40534,
        "meta_element_set_no": 999,
        "meta_rev_at_epoch": 7832,
        "meta_bstar": 0,
        "meta_mean_motion_dot": 7.7e-07,
        "meta_mean_motion_ddot": 0,
        "tle_line1": "1 40534U 15013A   25358.55511083  .00000077  00000+0  00000+0 0  9999",
        "tle_line2": "2 40534  53.1961 211.4008 0107488  38.7680 322.0719  2.00561869 78320"
      },
      "geometry": {
        "type": "Point",
        "coordinates": [
          39.76755958458265,
          -11.023563302265401
        ]
      }
    },
    {
      "type": "Feature",
      "properties": {
        "norad_id": 40544,
        "name": "GSAT0203 (GALILEO 7)",
        "group": "gnss",
        "lat": -15.109598291143284,
        "lon": 176.49099035895097,
        "alt_km": 23219.642390440276,
        "timestamp": "2025-12-25T07:41:09.966213+00:00",
        "meta_object_name": "GSAT0203 (GALILEO 7)",
        "meta_object_id": "2015-017A",
        "meta_epoch": "2025-12-20T21:23:15.511200",
        "meta_mean_motion": 1.70475982,
        "meta_eccentricity": 0.00064626,
        "meta_inclination": 56.8444,
        "meta_ra_of_asc_node": 346.4578,
        "meta_arg_of_pericenter": 274.4172,
        "meta_mean_anomaly": 85.5182,
        "meta_ephemeris_type": 0,
        "meta_classification_type": "U",
        "meta_norad_cat_id": 40544,
        "meta_element_set_no": 999,
        "meta_rev_at_epoch": 6616,
        "meta_bstar": 0,
        "meta_mean_motion_dot": -6.9e-07,
        "meta_mean_motion_ddot": 0,
        "tle_line1": "1 40544U 15017A   25354.89115175 -.00000069  00000+0  00000+0 0  9991",
        "tle_line2": "2 40544  56.8444 346.4578 0006462 274.4172  85.5182  1.70475982 66163"
      },
      "geometry": {
        "type": "Point",
        "coordinates": [
          176.49099035895097,
          -15.109598291143284
        ]
      }
    }
  ]
}